OBJECT_NAME,OBJECT_ID,EPOCH,MEAN_MOTION,ECCENTRICITY,INCLINATION,RA_OF_ASC_NODE,ARG_OF_PERICENTER,MEAN_ANOMALY,EPHEMERIS_TYPE,CLASSIFICATION_TYPE,NORAD_CAT_ID,ELEMENT_SET_NO,REV_AT_EPOCH,BSTAR,MEAN_MOTION_DOT,MEAN_MOTION_DDOT
OCEANSAT-2,2009-051A,2026-07-17T17:22:43.796928,13.99655902,.0017506,98.2322,182.5267,146.2261,214.0025,0,U,35931,999,88360,.27694E-5,-.33E-6,0
WORLDVIEW-2 (WV-2),2009-055A,2026-07-17T13:44:51.542592,14.37907319,.00054,98.4755,271.6088,124.1243,236.0457,0,U,35946,999,88001,.28498E-4,.42E-6,0
SMOS,2009-059A,2026-07-17T11:45:20.232000,14.39736723,.0001168,98.4430,25.3807,98.2686,261.8635,0,U,36036,999,87781,.4522E-4,.98E-6,0
YAOGAN-7,2009-069A,2026-07-17T03:31:43.612320,14.78036478,.00233912,98.0030,83.8237,304.7704,55.1305,0,U,36110,999,89405,.33466736E-4,.189E-5,0
TANDEM-X,2010-030A,2026-07-07T11:29:58.986816,15.19154052,.0001887,97.4457,195.8973,94.3019,265.8431,0,U,36605,999,88972,.21566E-4,.386E-5,0
CARTOSAT-2B,2010-035A,2026-07-17T17:22:25.942368,14.78653913,.0012751,97.9933,249.0755,92.4728,267.7943,0,U,36795,999,86436,.88945E-4,.6E-5,0
YAOGAN-10,2010-038A,2026-07-17T17:52:39.008352,14.85432407,.0001648,97.8965,221.9057,79.8869,49.8445,0,U,36834,999,86174,.37228E-4,.267E-5,0
COSMO-SKYMED 4,2010-060A,2026-07-17T18:08:37.300128,14.82151811,.0001542,97.8891,21.9133,85.5169,274.6220,0,U,37216,999,84909,.7788E-4,.568E-5,0
RESOURCESAT-2,2011-015A,2026-07-17T15:14:38.651712,14.21599885,.0011696,98.7631,265.8643,164.2849,195.8693,0,U,37387,999,79050,.33512E-4,.29E-6,0
HAIYANG-2A,2011-043A,2026-07-17T16:45:19.974240,13.73205246,.0002058,99.3398,200.6733,24.5407,335.5839,0,U,37781,999,75084,.19557E-4,-.25E-6,0
RASAT,2011-044D,2026-07-17T17:27:17.831808,14.68195636,.0021958,98.0584,289.6586,95.1541,59.1562,0,U,37791,999,79766,.12188E-3,.655E-5,0
SRMSAT,2011-058D,2026-07-17T11:48:44.276832,14.11581368,.0011702,19.9706,236.0426,176.3977,328.2795,0,U,37841,999,76210,.31755E-4,.324E-5,0
PLEIADES 1A,2011-076F,2026-07-17T17:46:08.350752,14.58547785,.0001664,98.1968,273.4311,77.2955,79.7918,0,U,38012,999,77644,.43552E-4,.157E-5,0
ZIYUAN 1-02C (ZY 1-02C),2011-079A,2026-07-17T18:20:46.294080,14.38236987,.0005741,98.4058,265.4322,206.2269,258.8901,0,U,38038,999,76360,.74344E-4,.183E-5,0
ARIRANG-3 (KOMPSAT-3),2012-025B,2026-07-17T18:11:10.452768,14.62230181,.0006068,98.1187,155.6936,31.8918,328.2649,0,U,38338,999,75581,.44126E-4,.176E-5,0
EXACTVIEW-1 (ADS-1B),2012-039C,2026-07-17T07:01:57.446400,14.24992522,.0011949,98.9807,316.3673,86.0894,274.1650,0,U,38709,999,72699,.33876E-4,.33E-6,0
SPOT 6,2012-047A,2026-07-17T17:25:13.504800,14.58540067,.0001107,98.2105,265.6749,87.8305,272.3021,0,U,38755,999,73750,.60832E-4,.237E-5,0
PLEIADES 1B,2012-068A,2026-07-17T16:13:13.630080,14.58535966,.0001539,98.1939,273.3059,77.4711,282.6660,0,U,39019,999,72529,.86322E-4,.355E-5,0
GOKTURK 2,2012-073A,2026-07-17T17:34:02.711712,14.75570656,.0000998,97.6805,34.6307,99.5725,260.5598,0,U,39030,999,72901,.75366E-4,.467E-5,0
LANDSAT 8,2013-008A,2026-07-17T15:38:11.109408,14.57095085,.0001361,98.2289,268.4228,91.4031,268.7323,0,U,39084,999,70233,.31301E-4,.96E-6,0
SARAL,2013-009A,2026-07-17T16:42:27.887040,14.32896162,.0001852,98.5557,24.8777,160.7875,199.3379,0,U,39086,999,69997,.2128E-4,.14E-6,0
GAOFEN-1,2013-018A,2026-07-17T16:39:25.106112,14.76520791,.0017259,97.9083,270.1399,163.1925,196.9861,0,U,39150,999,71274,.78743E-4,.499E-5,0
VNREDSAT 1,2013-021B,2026-07-17T16:33:58.777632,14.64885805,.0001551,97.9060,250.9335,80.0701,280.0677,0,U,39160,999,70475,.74387E-4,.352E-5,0
ARIRANG-5 (KOMPSAT-5),2013-042A,2026-07-17T18:14:14.388864,15.04495843,.0005155,97.6201,25.0308,51.2486,308.9200,0,U,39227,999,70845,.1651E-4,.17E-5,0
SKYSAT-A,2013-066C,2026-07-17T09:56:29.340672,15.13121968,.0020669,97.3801,246.8482,205.3975,154.6242,0,U,39418,999,69305,.867E-4,.1479E-4,0
DUBAISAT-2,2013-066D,2026-07-17T16:19:33.252672,15.10383725,.0009176,97.4580,188.0320,293.7318,66.2949,0,U,39419,999,69099,.91978E-4,.1448E-4,0
GPM-CORE,2014-009C,2026-07-17T13:41:28.929408,15.45059416,.0010921,64.9693,206.3253,262.8004,97.1895,0,U,39574,999,70250,.69397E-4,.3041E-4,0
SENTINEL-1A,2014-016A,2026-07-17T14:34:46.754976,14.59175806,.0001511,98.1738,205.6947,77.7211,282.4158,0,U,39634,999,65445,.14006E-4,.2E-6,0
KAZEOSAT 1,2014-024A,2026-07-17T16:33:42.770304,14.42038061,.0001215,98.3196,270.3763,82.8781,277.2547,0,U,39731,999,64295,.44979E-4,.105E-5,0
ALOS-2,2014-029A,2026-07-17T17:01:16.893120,14.79473040,.0001623,97.9233,295.4369,91.4502,268.6896,0,U,39766,999,65609,.17997E-3,.1293E-4,0
KAZEOSAT 2,2014-033A,2026-07-17T16:14:15.411264,14.85500179,.0007577,97.5389,36.6756,210.2206,149.8574,0,U,40010,999,65348,-.41377E-4,-.407E-5,0
