OCEANSAT-2              
1 35931U 09051A   26198.72411802 -.00000033  00000+0  27694-5 0  9996
2 35931  98.2322 182.5267 0017506 146.2261 214.0025 13.99655902883609
WORLDVIEW-2 (WV-2)      
1 35946U 09055A   26198.57281878  .00000042  00000+0  28498-4 0  9998
2 35946  98.4755 271.6088 0005400 124.1243 236.0457 14.37907319880013
SMOS                    
1 36036U 09059A   26198.48981750  .00000098  00000+0  45220-4 0  9992
2 36036  98.4430  25.3807 0001168  98.2686 261.8635 14.39736723877815
YAOGAN-7                
1 36110U 09069A   26198.14703255  .00000189  00000+0  33467-4 0  9992
2 36110  98.0030  83.8237 0023391 304.7704  55.1305 14.78036478894050
TANDEM-X                
1 36605U 10030A   26188.47915494  .00000386  00000+0  21566-4 0  9992
2 36605  97.4457 195.8973 0001887  94.3019 265.8431 15.19154052889726
CARTOSAT-2B             
1 36795U 10035A   26198.72391137  .00000600  00000+0  88945-4 0  9991
2 36795  97.9933 249.0755 0012751  92.4728 267.7943 14.78653913864364
YAOGAN-10               
1 36834U 10038A   26198.74489593  .00000267  00000+0  37228-4 0  9991
2 36834  97.8965 221.9057 0001648  79.8869  49.8445 14.85432407861740
COSMO-SKYMED 4          
1 37216U 10060A   26198.75598727  .00000568  00000+0  77880-4 0  9994
2 37216  97.8891  21.9133 0001542  85.5169 274.6220 14.82151811849093
RESOURCESAT-2           
1 37387U 11015A   26198.63516958  .00000029  00000+0  33512-4 0  9993
2 37387  98.7631 265.8643 0011696 164.2849 195.8693 14.21599885790509
HAIYANG-2A              
1 37781U 11043A   26198.69814785 -.00000025  00000+0  19557-4 0  9997
2 37781  99.3398 200.6733 0002058  24.5407 335.5839 13.73205246750840
RASAT                   
1 37791U 11044D   26198.72728972  .00000655  00000+0  12188-3 0  9995
2 37791  98.0584 289.6586 0021958  95.1541  59.1562 14.68195636797669
SRMSAT                  
1 37841U 11058D   26198.49217913  .00000324  00000+0  31755-4 0  9993
2 37841  19.9706 236.0426 0011702 176.3977 328.2795 14.11581368762101
PLEIADES 1A             
1 38012U 11076F   26198.74037443  .00000157  00000+0  43552-4 0  9992
2 38012  98.1968 273.4311 0001664  77.2955  79.7918 14.58547785776443
ZIYUAN 1-02C (ZY 1-02C) 
1 38038U 11079A   26198.76442470  .00000183  00000+0  74344-4 0  9997
2 38038  98.4058 265.4322 0005741 206.2269 258.8901 14.38236987763602
ARIRANG-3 (KOMPSAT-3)   
1 38338U 12025B   26198.75775987  .00000176  00000+0  44126-4 0  9990
2 38338  98.1187 155.6936 0006068  31.8918 328.2649 14.62230181755814
EXACTVIEW-1 (ADS-1B)    
1 38709U 12039C   26198.29302600  .00000033  00000+0  33876-4 0  9996
2 38709  98.9807 316.3673 0011949  86.0894 274.1650 14.24992522726996
SPOT 6                  
1 38755U 12047A   26198.72585075  .00000237  00000+0  60832-4 0  9991
2 38755  98.2105 265.6749 0001107  87.8305 272.3021 14.58540067737503
PLEIADES 1B             
1 39019U 12068A   26198.67585220  .00000355  00000+0  86322-4 0  9997
2 39019  98.1939 273.3059 0001539  77.4711 282.6660 14.58535966725294
GOKTURK 2               
1 39030U 12073A   26198.73197583  .00000467  00000+0  75366-4 0  9994
2 39030  97.6805  34.6307 0000998  99.5725 260.5598 14.75570656729018
LANDSAT 8               
1 39084U 13008A   26198.65151747  .00000096  00000+0  31301-4 0  9994
2 39084  98.2289 268.4228 0001361  91.4031 268.7323 14.57095085702335
SARAL                   
1 39086U 13009A   26198.69615610  .00000014  00000+0  21280-4 0  9990
2 39086  98.5557  24.8777 0001852 160.7875 199.3379 14.32896162699975
GAOFEN-1                
1 39150U 13018A   26198.69404058  .00000499  00000+0  78743-4 0  9997
2 39150  97.9083 270.1399 0017259 163.1925 196.9861 14.76520791712741
VNREDSAT 1              
1 39160U 13021B   26198.69026363  .00000352  00000+0  74387-4 0  9999
2 39160  97.9060 250.9335 0001551  80.0701 280.0677 14.64885805704759
ARIRANG-5 (KOMPSAT-5)   
1 39227U 13042A   26198.75988876  .00000170  00000+0  16510-4 0  9991
2 39227  97.6201  25.0308 0005155  51.2486 308.9200 15.04495843708459
SKYSAT-A                
1 39418U 13066C   26198.41422848  .00001479  00000+0  86700-4 0  9995
2 39418  97.3801 246.8482 0020669 205.3975 154.6242 15.13121968693057
DUBAISAT-2              
1 39419U 13066D   26198.68024598  .00001448  00000+0  91978-4 0  9994
2 39419  97.4580 188.0320 0009176 293.7318  66.2949 15.10383725690993
GPM-CORE                
1 39574U 14009C   26198.57047372  .00003041  00000+0  69397-4 0  9998
2 39574  64.9693 206.3253 0010921 262.8004  97.1895 15.45059416702506
SENTINEL-1A             
1 39634U 14016A   26198.60748559  .00000020  00000+0  14006-4 0  9993
2 39634  98.1738 205.6947 0001511  77.7211 282.4158 14.59175806654459
KAZEOSAT 1              
1 39731U 14024A   26198.69007836  .00000105  00000+0  44979-4 0  9991
2 39731  98.3196 270.3763 0001215  82.8781 277.2547 14.42038061642951
ALOS-2                  
1 39766U 14029A   26198.70922330  .00001293  00000+0  17997-3 0  9999
2 39766  97.9233 295.4369 0001623  91.4502 268.6896 14.79473040656097
KAZEOSAT 2              
1 40010U 14033A   26198.67656726 -.00000407  00000+0 -41377-4 0  9995
2 40010  97.5389  36.6756 0007577 210.2206 149.8574 14.85500179653484
